ASTRA 2E                
1 39285U 13056A   22158.53725437  .00000163  00000+0  00000+0 0  9994
2 39285   0.0573 350.0981 0002247  82.1085  45.5606  1.00271988 31690
FM-6                    
1 39360U 13058A   22158.23051413 -.00000004  00000+0  00000+0 0  9998
2 39360   0.0301 294.5948 0000731  14.7643 273.0701  1.00270681 31317
RADUGA-1M 3             
1 39375U 13062A   22158.53856264  .00000168  00000+0  00000+0 0  9999
2 39375   2.2059  89.9318 0004005 144.3011 250.5473  1.00272466 31387
SES-8                   
1 39460U 13071A   22158.58035433 -.00000257  00000+0  00000+0 0  9996
2 39460   0.0361 263.9109 0002811 176.5822 119.3867  1.00270775 29686
INMARSAT 5-F1           
1 39476U 13073A   22158.54405737  .00000040  00000+0  00000+0 0  9998
2 39476   0.0181 353.5012 0000121  24.4211 136.4530  1.00270064 30845
TKSAT-1 (TUPAC KATARI)  
1 39481U 13075A   22158.51424986 -.00000182  00000+0  00000+0 0  9998
2 39481   0.0301 123.2365 0002551 294.5469 296.0559  1.00272431 30846
EXPRESS-AM5             
1 39487U 13077A   22158.58452126 -.00000267  00000+0  00000+0 0  9994
2 39487   0.0339 208.5782 0001089 120.0105 277.8424  1.00272270 31602
GSAT-14                 
1 39498U 14001A   22158.54632505 -.00000065  00000+0  00000+0 0  9997
2 39498   0.0232 266.9855 0001695 357.4644 262.1728  1.00270848 30659
THAICOM 6               
1 39500U 14002A   22158.54728444 -.00000109  00000+0  00000+0 0  9999
2 39500   0.0679 121.8437 0003584 345.0081  64.5988  1.00271753 30715
TDRS 12                 
1 39504U 14004A   22158.52332053 -.00000261  00000+0  00000+0 0  9999
2 39504   3.8679 347.1343 0005257 116.0862 300.1003  1.00267215 29534
ABS-2                   
1 39508U 14006A   22158.54658670 -.00000074  00000+0  00000+0 0  9995
2 39508   0.0303  38.2241 0004109  11.9685 117.4247  1.00271870 30541
ATHENA-FIDUS            
1 39509U 14006B   22158.53917316  .00000166  00000+0  00000+0 0  9991
2 39509   0.0117   6.9670 0001432  63.7962  57.0473  1.00271267 30339
TURKSAT 4A              
1 39522U 14007A   22158.53995812  .00000158  00000+0  00000+0 0  9995
2 39522   0.0528 269.3576 0000555 129.3770  93.5851  1.00272569 30242
EXPRESS-AT1             
1 39612U 14010A   22158.54274911  .00000091  00000+0  00000+0 0  9996
2 39612   0.0264 204.7972 0000181 284.2506  18.2728  1.00273170 30308
EXPRESS-AT2             
1 39613U 14010B   22157.94424324 -.00000270  00000+0  00000+0 0  9995
2 39613   0.0189 226.9712 0000131  17.9338 130.1796  1.00269696 30130
AMAZONAS 4A             
1 39616U 14011A   22158.51686639 -.00000240  00000+0  00000+0 0  9999
2 39616   0.0019   2.9797 0003222  84.3855 280.6113  1.00274073 29953
ASTRA 5B                
1 39617U 14011B   22158.53786490  .00000167  00000+0  00000+0 0  9995
2 39617   0.0390 329.6628 0003635 112.5791  38.8272  1.00274543 29927
IRNSS-1B                
1 39635U 14017A   22157.39441128  .00000097  00000+0  00000+0 0  9992
2 39635  28.7644 265.2909 0022948 184.4640   2.2217  1.00278843 30026
LUCH 5V                 
1 39727U 14023A   22158.55024986 -.00000255  00000+0  00000+0 0  9996
2 39727   1.4746  75.2867 0003918  30.2475  83.1564  1.00267627 29615
KAZSAT-3                
1 39728U 14023B   22158.54327242  .00000073  00000+0  00000+0 0  9994
2 39728   0.0264  86.1572 0000752  68.3451 355.4897  1.00271455 27705
EUTELSAT 3B             
1 39773U 14030A   22158.53221679  .00000032  00000+0  00000+0 0  9993
2 39773   0.0620  10.5449 0005797 141.3944 298.6610  1.00271415 29325
ASIASAT 8 (AMOS-7)      
1 40107U 14046A   22158.31553740 -.00000021  00000+0  00000+0 0  9995
2 40107   0.0470 135.0019 0001821 297.4410 292.9668  1.00272212 87399
ASIASAT 6               
1 40141U 14052A   22158.55551252 -.00000350  00000+0  00000+0 0  9997
2 40141   0.0212 271.4074 0000593 103.4039 201.0241  1.00271556 28411
OPTUS 10                
1 40146U 14054A   22158.49771527 -.00000135  00000+0  00000+0 0  9997
2 40146   0.0335  98.2117 0003101 358.0369 134.8007  1.00271545 28283
MEASAT-3B               
1 40147U 14054B   22158.33460471 -.00000229  00000+0  00000+0 0  9998
2 40147   0.0664  67.7931 0003156   1.8095  38.0588  1.00270169 28160
LUCH (OLYMP)            
1 40258U 14058A   22158.68020904  .00000047  00000+0  00000+0 0  9993
2 40258   0.0548 110.0129 0000536  91.6804   1.1163  1.00271576 28195
HIMAWARI-8              
1 40267U 14060A   22158.55961177 -.00000263  00000+0  00000+0 0  9999
2 40267   0.0363 131.0651 0000762 320.5763 146.4194  1.00273093 28016
IRNSS-1C                
1 40269U 14061A   22158.54815663 -.00000146  00000+0  00000+0 0  9999
2 40269   2.9411 129.1778 0020300   7.4160  39.7035  1.00270092 27948
INTELSAT 30 (IS-30)     
1 40271U 14062A   22158.37892587 -.00000138  00000+0  00000+0 0  9995
2 40271   0.0189 327.9412 0001516 107.7012 221.4739  1.00272093 27835
ARSAT 1                 
1 40272U 14062B   22158.51730248 -.00000247  00000+0  00000+0 0  9998
2 40272   0.0326  70.5787 0001522 358.8462 300.8974  1.00271422 27861
EXPRESS-AM6             
1 40277U 14064A   22158.65620449  .00000110  00000+0  00000+0 0  9999
2 40277   0.0180 238.6264 0000359 250.2097  56.4347  1.00273774 27924
GSAT-16                 
1 40332U 14078A   22158.54257466  .00000097  00000+0  00000+0 0  9993
2 40332   0.0351 112.9740 0007529 333.9509  59.3859  1.00271966 27361
DIRECTV 14              
1 40333U 14078B   22158.45525969 -.00000113  00000+0  00000+0 0  9990
2 40333   0.0520  95.8360 0001288  66.7828 157.8593  1.00271068 27315
YAMAL 401               
1 40345U 14082A   22158.40188120 -.00000217  00000+0  00000+0 0  9992
2 40345   0.0096 340.8142 0000506 125.5253  24.0629  1.00273905 27176
ASTRA 2G                
1 40364U 14089A   22158.25024219  .00000162  00000+0  00000+0 0  9999
2 40364   0.0311 357.3732 0004847  71.4770 305.0848  1.00272220 27219
FENGYUN 2G              
1 40367U 14090A   22158.55150921 -.00000291  00000+0  00000+0 0  9991
2 40367   1.9100  89.5484 0001612 352.8580 111.9548  1.00268275 27258
MUOS-3                  
1 40374U 15002A   22158.38495779 -.00000117  00000+0  00000+0 0  9994
2 40374   2.5547  12.3456 0053393 175.6680 190.8523  1.00271954 26847
INMARSAT 5-F2           
1 40384U 15005A   22158.44891646 -.00000273  00000+0  00000+0 0  9991
2 40384   0.0180 341.9726 0000498   3.1210  17.3445  1.00264535 26233
ABS-3A                  
1 40424U 15010A   22158.24396248 -.00000014  00000+0  00000+0 0  9991
2 40424   0.0150  68.6087 0002112 288.4586 343.4081  1.00272432 26635
EUTELSAT 115 WEST B     
1 40425U 15010B   22158.50875510 -.00000012  00000+0  00000+0 0  9993
2 40425   0.0056 161.3776 0000129 355.2535 167.4916  1.00272224 26652
EXPRESS-AM7             
1 40505U 15012A   22158.53960927  .00000163  00000+0  00000+0 0  9990
2 40505   0.0183 354.0958 0003039  83.3473  52.7207  1.00271167 26269
IRNSS-1D                
1 40547U 15018A   22157.71577302 -.00000285  00000+0  00000+0 0  9998
2 40547  28.5900 265.3195 0023241 184.9198 174.1740  1.00264921 26231
BEIDOU 17               
1 40549U 15019A   22158.40624483 -.00000153  00000+0  00000+0 0  9995
2 40549  51.9033 312.8707 0036251 192.7563 347.5645  1.00299083 26333
THOR 7                  
1 40613U 15022A   22158.24448580  .00000004  00000+0  00000+0 0  9999
2 40613   0.0442 125.8454 0002564 306.9830 270.1581  1.00272336 26063
TURKMENALEM52E/MONACOSAT
1 40617U 15023A   22158.54196414  .00000116  00000+0  00000+0 0  9997
2 40617   0.0277  86.2173 0002486 354.5908  62.2302  1.00271146 26091
DIRECTV 15              
1 40663U 15026A   22158.60125410 -.00000089  00000+0  00000+0 0  9996
2 40663   0.0508 100.1973 0000501 176.9314  92.4304  1.00268997 25711
SKY MEXICO-1            
1 40664U 15026B   22157.79836779 -.00000223  00000+0  00000+0 0  9993
2 40664   0.0251  59.8066 0002030  22.0128  22.0140  1.00271062 25706
METEOSAT-11 (MSG-4)     
1 40732U 15034A   22158.31632236  .00000007  00000+0  00000+0 0  9998
2 40732   0.2714  52.0103 0001511  59.7884 257.5313  1.00275549 25277
STAR ONE C4             
1 40733U 15034B   22158.44586381 -.00000253  00000+0  00000+0 0  9996
2 40733   0.0284  30.8735 0002551  24.4967 290.9479  1.00275952 25271
WGS F7 (USA 263)        
1 40746U 15036A   22157.84898135  .00000029  00000+0  00000+0 0  9998
2 40746   0.0101 339.1998 0000107  37.0795 359.5709  1.00271885 25115
INTELSAT 34 (IS-34)     
1 40874U 15039A   22158.44882922 -.00000273  00000+0  00000+0 0  9999
2 40874   0.0135 354.9557 0000174  75.1541 291.8088  1.00270361 24874
EUTELSAT 8 WEST B       
1 40875U 15039B   22158.38652772 -.00000053  00000+0  00000+0 0  9997
2 40875   0.0653  10.5703 0006053  59.0653 317.2689  1.00271612 24909
GSAT-6                  
1 40880U 15041A   22158.54806941 -.00000148  00000+0  00000+0 0  9998
2 40880   0.0427  95.4005 0002952 349.4962  90.8840  1.00271879 24867
INMARSAT 5-F3           
1 40882U 15042A   22157.84959187  .00000062  00000+0  00000+0 0  9998
2 40882   0.0180 351.3316 0000571 115.1758 274.1908  1.00273094 24807
MUOS-4                  
1 40887U 15044A   22158.54658670 -.00000082  00000+0  00000+0 0  9999
2 40887   2.5529   7.3743 0055816   2.0712 158.2747  1.00271877 24815
TJS-1                   
1 40892U 15046A   22158.59266566 -.00000144  00000+0  00000+0 0  9990
2 40892   0.0336 113.9585 0000943 299.1484 211.1864  1.00271492 24816
EXPRESS-AM8             
1 40895U 15048A   22158.38521944 -.00000099  00000+0  00000+0 0  9995
2 40895   0.0183 230.3682 0000310 199.2658 310.8099  1.00271707 24638
BEIDOU 20               
1 40938U 15053A   22157.69662069 -.00000135  00000+0  00000+0 0  9997
2 40938  51.5180 275.9991 0044494 195.8511 127.2375  1.00294942 24591
SKY MUSTER 1 (NBN1A)    
1 40940U 15054A   22158.58452126 -.00000266  00000+0  00000+0 0  9996
2 40940   0.0159 311.4425 0001813 120.3999 174.8008  1.00270541 24510
